QIANFAN-65              
1 62795U 25016L   25365.24655056  .00000158  00000+0  22638-3 0  9994
2 62795  88.9765 101.1477 0012149 289.8347  70.1494 13.50978356 49749
QIANFAN-66              
1 62796U 25016M   25365.27537674  .00000214  00000+0  31361-3 0  9999
2 62796  88.9785 101.1185 0013261 284.7059  75.2622 13.50983429 49799
QIANFAN-67              
1 62797U 25016N   25365.27957006  .00000205  00000+0  29973-3 0  9991
2 62797  88.9775 101.1418 0013227 292.5486  67.4265 13.50987573 49768
QIANFAN-68              
1 62798U 25016P   25365.27123277  .00000219  00000+0  32119-3 0  9998
2 62798  88.9778 101.1885 0013278 290.5422  69.4304 13.50989998 49741
QIANFAN-69              
1 62799U 25016Q   25365.28768643  .00000209  00000+0  30495-3 0  9996
2 62799  88.9757 101.0522 0014021 291.7674  68.1985 13.50992707 49782
QIANFAN-70              
1 62800U 25016R   25365.30423973  .00000224  00000+0  32781-3 0  9993
2 62800  88.9778 101.1930 0013647 280.7986  79.1629 13.50983674 49745
QIANFAN-71              
1 62801U 25016S   25365.30004523  .00000217  00000+0  31823-3 0  9998
2 62801  88.9772 101.1718 0013952 295.7051  64.2659 13.50983144 49742
QIANFAN-72              
1 62802U 25016T   25365.31649614  .00000209  00000+0  30533-3 0  9994
2 62802  88.9763 101.1816 0017255 303.4799  56.4702 13.50982973 49738
